0 SL-3 DEB
1 15521U 74083C   13282.66429523  .00000043  00000-0  17684-4 0  1730
2 15521 081.2122 027.4274 0039031 227.3983 200.1243 14.08667086  6057
0 SL-3 DEB
1 15521U 74083C   13285.57473500  .00000057  00000-0  25749-4 0  1744
2 15521 081.2125 024.5904 0039188 219.1966 199.5437 14.08667213  6464
0 SL-3 DEB
1 15521U 74083C   13287.71722644  .00000095  00000-0  47543-4 0  1757
2 15521 081.2126 022.5023 0039296 213.1786 264.5257 14.08667389  6769
0 SL-3 DEB
1 15521U 74083C   13289.99115977  .00000101  00000-0  51154-4 0  1766
2 15521 081.2123 020.2862 0039414 206.7821 276.0864 14.08667831  7082
0 SL-3 DEB
1 15521U 74083C   13292.32505837  .00000091  00000-0  45368-4 0  1774
2 15521 081.2119 018.0114 0039543 200.2141 231.7481 14.08668404  7416
0 SL-3 DEB
1 15521U 74083C   13294.39401019  .00000074  00000-0  35692-4 0  1781
2 15521 081.2117 015.9944 0039661 194.4145 283.7934 14.08668987  7708
